NORAD_CAT_ID,OBJECT_NAME,OBJECT_TYPE,EPOCH,MEAN_MOTION,ECCENTRICITY,INCLINATION,RA_OF_ASC_NODE,ARG_OF_PERICENTER,MEAN_ANOMALY,BSTAR,MEAN_MOTION_DOT,MEAN_MOTION_DDOT,TLE_LINE0,TLE_LINE1,TLE_LINE2,SEMIMAJOR_AXIS,PERIOD,APOGEE,PERIGEE,DECAYED
53144.0,STARLINK-4100,PAYLOAD,2023-12-14 23:20:10,15.08849933,0.0001729,53.2171,236.0288,86.8956,273.2234,0.00021777,3.18e-05,0.0,0 STARLINK-4100,1 53144U 22083N   23348.97234263  .00003180  00000-0  21777-3 0  9997,2 53144  53.2171 236.0288 0001729  86.8956 273.2234 15.08849933 78073,6917.85,95.437,540.911,538.519,0.0
53144.0,STARLINK-4100,PAYLOAD,2023-12-15 20:00:11,15.08837008,0.000148,53.2165,232.1655,85.9578,274.1583,7.1865e-06,-1.74e-06,0.0,0 STARLINK-4100,1 53144U 22083N   23349.83347136 -.00000174  00000-0  71865-5 0  9993,2 53144  53.2165 232.1655 0001480  85.9578 274.1583 15.08837008 78836,6917.89,95.438,540.778,538.731,0.0
53144.0,STARLINK-4100,PAYLOAD,2023-12-15 21:35:34,15.08837657,0.000158,53.2165,231.8669,99.2312,260.8859,9.7255e-06,-1.33e-06,0.0,0 STARLINK-4100,1 53144U 22083N   23349.89971031 -.00000133  00000-0  97255-5 0  9992,2 53144  53.2165 231.8669 0001580  99.2312 260.8859 15.08837657 78212,6917.888,95.438,540.846,538.66,0.0
53144.0,STARLINK-4100,PAYLOAD,2023-12-15 23:10:58,15.08836581,0.0001548,53.2165,231.5689,100.0231,260.0936,-6.1723e-06,-3.86e-06,0.0,0 STARLINK-4100,1 53144U 22083N   23349.96595073 -.00000386  00000-0 -61723-5 0  9990,2 53144  53.2165 231.5689 0001548 100.0231 260.0936 15.08836581 78220,6917.891,95.438,540.827,538.685,0.0
53144.0,STARLINK-4100,PAYLOAD,2023-12-16 21:26:21,15.08845609,0.000145,53.2157,227.4057,101.4227,258.6928,7.1386e-07,-2.77e-06,0.0,0 STARLINK-4100,1 53144U 22083N   23350.89330671 -.00000277  00000-0  71386-6 0  9990,2 53144  53.2157 227.4057 0001450 101.4227 258.6928 15.08845609 78366,6917.863,95.437,540.731,538.725,0.0
53144.0,STARLINK-4100,PAYLOAD,2023-12-17 19:41:45,15.08843387,0.0001376,53.2152,223.2389,79.4005,280.7142,0.00018787,2.704e-05,0.0,0 STARLINK-4100,1 53144U 22083N   23351.82066951  .00002704  00000-0  18787-3 0  9990,2 53144  53.2152 223.2389 0001376  79.4005 280.7142 15.08843387 79139,6917.87,95.437,540.687,538.783,0.0
53144.0,STARLINK-4100,PAYLOAD,2023-12-17 21:17:08,15.0884569,0.0001387,53.2153,222.9437,83.865,276.25,0.00020893,3.039e-05,0.0,0 STARLINK-4100,1 53144U 22083N   23351.88690871  .00003039  00000-0  20893-3 0  9993,2 53144  53.2153 222.9437 0001387  83.8650 276.2500 15.08845690 78515,6917.863,95.437,540.688,538.768,0.0
53144.0,STARLINK-4100,PAYLOAD,2023-12-17 22:52:31,15.08847829,0.0001426,53.2154,222.6466,92.6156,267.5,0.00024618,3.633e-05,0.0,0 STARLINK-4100,1 53144U 22083N   23351.95314751  .00003633  00000-0  24618-3 0  9990,2 53144  53.2154 222.6466 0001426  92.6156 267.5000 15.08847829 78523,6917.856,95.437,540.708,538.735,0.0
53144.0,STARLINK-4100,PAYLOAD,2023-12-18 21:07:56,15.08840771,0.0001654,53.2164,218.4849,105.3709,254.7466,4.9736e-05,5.04e-06,0.0,0 STARLINK-4100,1 53144U 22083N   23352.88050963  .00000504  00000-0  49736-4 0  9998,2 53144  53.2164 218.4849 0001654 105.3709 254.7466 15.08840771 78669,6917.878,95.438,540.887,538.599,0.0
53144.0,STARLINK-4100,PAYLOAD,2023-12-19 19:23:20,15.08836924,0.0001695,53.2165,214.3208,70.8052,289.3123,1.2667e-05,-8.6e-07,0.0,0 STARLINK-4100,1 53144U 22083N   23353.80787536 -.00000086  00000-0  12667-4 0  9993,2 53144  53.2165 214.3208 0001695  70.8052 289.3123 15.08836924 79431,6917.89,95.438,540.927,538.582,0.0
53144.0,STARLINK-4100,PAYLOAD,2023-12-19 22:34:06,15.08838261,0.0001569,53.2161,213.7249,77.218,282.8987,-1.9422e-05,-5.97e-06,0.0,0 STARLINK-4100,1 53144U 22083N   23353.94035407 -.00000597  00000-0 -19422-4 0  9995,2 53144  53.2161 213.7249 0001569  77.2180 282.8987 15.08838261 78822,6917.886,95.438,540.836,538.665,0.0
53144.0,STARLINK-4100,PAYLOAD,2023-12-20 20:49:30,15.08839791,0.0001812,53.2166,209.563,67.2597,292.8586,0.00011683,1.572e-05,0.0,0 STARLINK-4100,1 53144U 22083N   23354.86771744  .00001572  00000-0  11683-3 0  9990,2 53144  53.2166 209.5630 0001812  67.2597 292.8586 15.08839791 78966,6917.881,95.438,541.0,538.493,0.0
53144.0,STARLINK-4100,PAYLOAD,2023-12-21 20:40:17,15.08839837,0.0001306,53.2152,205.1028,99.6745,260.4395,0.00010574,1.395e-05,0.0,0 STARLINK-4100,1 53144U 22083N   23355.86131598  .00001395  00000-0  10574-3 0  9999,2 53144  53.2152 205.1028 0001306  99.6745 260.4395 15.08839837 79114,6917.881,95.438,540.649,538.842,0.0
53144.0,STARLINK-4100,PAYLOAD,2023-12-22 18:55:41,15.08842316,0.0001342,53.2163,200.938,90.6356,269.479,5.8625e-05,6.45e-06,0.0,0 STARLINK-4100,1 53144U 22083N   23356.78867609  .00000645  00000-0  58625-4 0  9997,2 53144  53.2163 200.9380 0001342  90.6356 269.4790 15.08842316 79887,6917.873,95.437,540.667,538.81,0.0
53144.0,STARLINK-4100,PAYLOAD,2023-12-22 20:31:04,15.08843702,0.0001377,53.2166,200.6393,92.8445,267.2705,6.4612e-05,7.41e-06,0.0,0 STARLINK-4100,1 53144U 22083N   23356.85491430  .00000741  00000-0  64612-4 0  9990,2 53144  53.2166 200.6393 0001377  92.8445 267.2705 15.08843702 79266,6917.869,95.437,540.687,538.781,0.0
53144.0,STARLINK-4100,PAYLOAD,2023-12-23 14:00:19,15.08839154,0.0001464,53.2171,197.3702,96.5235,263.5924,0.00011735,1.58e-05,0.0,0 STARLINK-4100,1 53144U 22083N   23357.58355563  .00001580  00000-0  11735-3 0  9996,2 53144  53.2171 197.3702 0001464  96.5235 263.5924 15.08839154 79373,6917.883,95.438,540.761,538.735,0.0
53144.0,STARLINK-4100,PAYLOAD,2023-12-23 18:46:28,15.08841239,0.0001517,53.2174,196.4822,103.2166,256.8995,0.000128,1.75e-05,0.0,0 STARLINK-4100,1 53144U 22083N   23357.78227442  .00001750  00000-0  12800-3 0  9995,2 53144  53.2174 196.4822 0001517 103.2166 256.8995 15.08841239 79401,6917.877,95.437,540.791,538.692,0.0
53144.0,STARLINK-4100,PAYLOAD,2023-12-23 23:32:39,15.08828218,0.0001463,53.2181,195.5937,75.6728,284.4427,2.011e-05,3.2e-07,0.0,0 STARLINK-4100,1 53144U 22083N   23357.98100813  .00000032  00000-0  20110-4 0  9995,2 53144  53.2181 195.5937 0001463  75.6728 284.4427 15.08828218 80065,6917.916,95.438,540.793,538.769,0.0
53144.0,STARLINK-4100,PAYLOAD,2023-12-24 13:51:09,15.0880968,0.0001355,53.217,192.91,100.3521,259.7624,-0.00015409,-2.737e-05,0.0,0 STARLINK-4100,1 53144U 22083N   23358.57719240 -.00002737  00000-0 -15409-3 0  9991,2 53144  53.2170 192.9100 0001355 100.3521 259.7624 15.08809680 79528,6917.973,95.439,540.775,538.901,0.0
53144.0,STARLINK-4100,PAYLOAD,2023-12-24 18:37:16,15.08838513,0.0001937,53.218,192.024,114.0047,246.1148,8.2087e-05,1.018e-05,0.0,0 STARLINK-4100,1 53144U 22083N   23358.77589079  .00001018  00000-0  82087-4 0  9994,2 53144  53.2180 192.0240 0001937 114.0047 246.1148 15.08838513 79557,6917.885,95.438,541.09,538.41,0.0
53144.0,STARLINK-4100,PAYLOAD,2023-12-25 20:03:26,15.0884549,0.0001549,53.2166,187.2614,87.7214,272.3955,0.00012981,1.779e-05,0.0,0 STARLINK-4100,1 53144U 22083N   23359.83572909  .00001779  00000-0  12981-3 0  9995,2 53144  53.2166 187.2614 0001549  87.7214 272.3955 15.08845490 80341,6917.864,95.437,540.8,538.657,0.0
53144.0,STARLINK-4100,PAYLOAD,2023-12-25 21:38:50,15.08846439,0.0001595,53.2168,186.9637,93.5998,266.5176,0.00013618,1.88e-05,0.0,0 STARLINK-4100,1 53144U 22083N   23359.90196808  .00001880  00000-0  13618-3 0  9994,2 53144  53.2168 186.9637 0001595  93.5998 266.5176 15.08846439 79723,6917.861,95.437,540.829,538.622,0.0
53144.0,STARLINK-4100,PAYLOAD,2023-12-26 11:57:21,15.08762427,0.0001307,53.2169,184.2867,104.8374,255.2763,0.0016439,0.00025916,0.0,0 STARLINK-4100,1 53144U 22083N   23360.49816905  .00025916  00000-0  16439-2 0  9996,2 53144  53.2169 184.2867 0001307 104.8374 255.2763 15.08762427 80447,6918.118,95.442,540.887,539.078,0.0
53144.0,STARLINK-4100,PAYLOAD,2023-12-26 19:54:13,15.08859269,0.0001731,53.2151,182.8004,87.3768,272.7422,0.0002382,3.507e-05,0.0,0 STARLINK-4100,1 53144U 22083N   23360.82932311  .00003507  00000-0  23820-3 0  9998,2 53144  53.2151 182.8004 0001731  87.3768 272.7422 15.08859269 80490,6917.821,95.436,540.884,538.489,0.0
53144.0,STARLINK-4100,PAYLOAD,2023-12-26 21:29:36,15.08860446,0.0001746,53.2152,182.5028,86.979,273.1401,0.00024965,3.69e-05,0.0,0 STARLINK-4100,1 53144U 22083N   23360.89556181  .00003690  00000-0  24965-3 0  9996,2 53144  53.2152 182.5028 0001746  86.9790 273.1401 15.08860446 79871,6917.818,95.436,540.891,538.475,0.0
53144.0,STARLINK-4100,PAYLOAD,2023-12-27 11:48:04,15.0885402,0.000186,53.2148,179.827,86.7005,273.42,6.8753e-05,8.07e-06,0.0,0 STARLINK-4100,1 53144U 22083N   23361.49172122  .00000807  00000-0  68753-4 0  9993,2 53144  53.2148 179.8270 0001860  86.7005 273.4200 15.08854020 80590,6917.838,95.437,540.989,538.416,0.0
53144.0,STARLINK-4100,PAYLOAD,2023-12-27 18:09:37,15.08851898,0.0001693,53.215,178.634,107.2539,252.8638,2.7449e-05,1.49e-06,0.0,0 STARLINK-4100,1 53144U 22083N   23361.75667895  .00000149  00000-0  27449-4 0  9994,2 53144  53.2150 178.6340 0001693 107.2539 252.8638 15.08851898 80005,6917.844,95.437,540.88,538.538,0.0
53144.0,STARLINK-4100,PAYLOAD,2023-12-28 18:00:23,15.08850479,0.0001696,53.2151,174.174,109.6685,250.449,-3.5297e-05,-8.5e-06,0.0,0 STARLINK-4100,1 53144U 22083N   23362.75027467 -.00000850  00000-0 -35297-4 0  9991,2 53144  53.2151 174.1740 0001696 109.6685 250.4490 15.08850479 80781,6917.848,95.437,540.887,538.54,0.0
53144.0,STARLINK-4100,PAYLOAD,2023-12-29 14:40:24,15.0884161,0.0001661,53.2153,170.3106,82.3585,277.7595,8.4043e-05,1.05e-05,0.0,0 STARLINK-4100,1 53144U 22083N   23363.61139993  .00001050  00000-0  84043-4 0  9999,2 53144  53.2153 170.3106 0001661  82.3585 277.7595 15.08841610 80285,6917.875,95.437,540.89,538.591,0.0
53144.0,STARLINK-4100,PAYLOAD,2023-12-29 17:51:11,15.08842462,0.0001649,53.2163,169.7158,85.1065,275.0115,7.4673e-05,9.01e-06,0.0,0 STARLINK-4100,1 53144U 22083N   23363.74387903  .00000901  00000-0  74673-4 0  9991,2 53144  53.2163 169.7158 0001649  85.1065 275.0115 15.08842462 80932,6917.873,95.437,540.879,538.597,0.0
